NORAD_CAT_ID,OBJECT_NAME,OBJECT_TYPE,EPOCH,MEAN_MOTION,ECCENTRICITY,INCLINATION,RA_OF_ASC_NODE,ARG_OF_PERICENTER,MEAN_ANOMALY,BSTAR,MEAN_MOTION_DOT,MEAN_MOTION_DDOT,TLE_LINE0,TLE_LINE1,TLE_LINE2,SEMIMAJOR_AXIS,PERIOD,APOGEE,PERIGEE,DECAYED
53792.0,STARLINK-4739,PAYLOAD,2023-11-27 14:51:44,15.08823053,0.0001599,53.2192,53.7174,97.6916,262.4258,-0.00029255,-4.939e-05,0.0,0 STARLINK-4739,1 53792U 22111V   23331.61926725 -.00004939  00000-0 -29255-3 0  9996,2 53792  53.2192  53.7174 0001599  97.6916 262.4258 15.08823053 67927,6917.932,95.439,540.903,538.691,0.0
53792.0,STARLINK-4739,PAYLOAD,2023-11-28 11:31:45,15.08838397,0.0001887,53.2177,49.8646,62.5615,297.5569,0.00027456,4.084e-05,0.0,0 STARLINK-4739,1 53792U 22111V   23332.48038493  .00004084  00000-0  27456-3 0  9998,2 53792  53.2177  49.8646 0001887  62.5615 297.5569 15.08838397 67254,6917.885,95.438,541.056,538.445,0.0
53792.0,STARLINK-4739,PAYLOAD,2023-11-28 13:07:07,15.08853664,0.0001485,53.2193,49.5595,89.5252,270.591,0.00046025,7.047e-05,0.0,0 STARLINK-4739,1 53792U 22111V   23332.54661346  .00007047  00000-0  46025-3 0  9999,2 53792  53.2193  49.5595 0001485  89.5252 270.5910 15.08853664 68067,6917.839,95.437,540.731,538.676,0.0
53792.0,STARLINK-4739,PAYLOAD,2023-11-29 11:22:32,15.0883946,0.0001523,53.219,45.3991,95.1683,264.9483,0.00027325,4.063e-05,0.0,0 STARLINK-4739,1 53792U 22111V   23333.47398850  .00004063  00000-0  27325-3 0  9996,2 53792  53.2190  45.3991 0001523  95.1683 264.9483 15.08839460 67409,6917.882,95.438,540.801,538.693,0.0
53792.0,STARLINK-4739,PAYLOAD,2023-12-01 09:28:43,15.08841489,0.0001679,53.219,36.7758,105.8421,254.2756,0.0001003,1.309e-05,0.0,0 STARLINK-4739,1 53792U 22111V   23335.39494569  .00001309  00000-0  10030-3 0  9998,2 53792  53.2190  36.7758 0001679 105.8421 254.2756 15.08841489 67695,6917.876,95.437,540.902,538.579,0.0
53792.0,STARLINK-4739,PAYLOAD,2023-12-02 10:54:51,15.0887269,0.0001689,53.2188,32.0196,95.7319,264.3866,0.00047449,7.278e-05,0.0,0 STARLINK-4739,1 53792U 22111V   23336.45476500  .00007278  00000-0  47449-3 0  9996,2 53792  53.2188  32.0196 0001689  95.7319 264.3866 15.08872690 67851,6917.78,95.435,540.814,538.477,0.0
53792.0,STARLINK-4739,PAYLOAD,2023-12-03 04:24:09,15.08797645,9.85e-05,53.2189,28.747,89.5076,270.6029,-0.00066311,-0.00010813,0.0,0 STARLINK-4739,1 53792U 22111V   23337.18344364 -.00010813  00000-0 -66311-3 0  9999,2 53792  53.2189  28.7470 0000985  89.5076 270.6029 15.08797645 67967,6918.01,95.44,540.556,539.193,0.0
53792.0,STARLINK-4739,PAYLOAD,2023-12-03 10:45:42,15.08800771,0.0001504,53.2181,27.5572,102.6903,257.4257,-0.00056044,-9.187e-05,0.0,0 STARLINK-4739,1 53792U 22111V   23337.44840764 -.00009187  00000-0 -56044-3 0  9997,2 53792  53.2181  27.5572 0001504 102.6903 257.4257 15.08800771 68808,6918.0,95.44,540.906,538.825,0.0
53792.0,STARLINK-4739,PAYLOAD,2023-12-04 10:36:28,15.08848688,0.0001649,53.2185,23.0971,94.4159,265.7021,0.00015075,2.113e-05,0.0,0 STARLINK-4739,1 53792U 22111V   23338.44199450  .00002113  00000-0  15075-3 0  9996,2 53792  53.2185  23.0971 0001649  94.4159 265.7021 15.08848688 68155,6917.854,95.437,540.86,538.578,0.0
53792.0,STARLINK-4739,PAYLOAD,2023-12-04 12:11:51,15.08852368,0.0001629,53.2183,22.7984,106.1873,253.9299,0.00021399,3.12e-05,0.0,0 STARLINK-4739,1 53792U 22111V   23338.50823211  .00003120  00000-0  21399-3 0  9997,2 53792  53.2183  22.7984 0001629 106.1873 253.9299 15.08852368 68960,6917.843,95.437,540.835,538.581,0.0
53792.0,STARLINK-4739,PAYLOAD,2023-12-05 02:30:20,15.08837892,0.0001772,53.218,20.1231,115.2447,244.8729,0.00065946,0.00010222,0.0,0 STARLINK-4739,1 53792U 22111V   23339.10440189  .00010222  00000-0  65946-3 0  9990,2 53792  53.2180  20.1231 0001772 115.2447 244.8729 15.08837892 68255,6917.887,95.438,540.978,538.526,0.0
53792.0,STARLINK-4739,PAYLOAD,2023-12-05 10:27:15,15.08828967,0.000163,53.2184,18.6357,117.0155,243.1003,0.0004823,7.394e-05,0.0,0 STARLINK-4739,1 53792U 22111V   23339.43560077  .00007394  00000-0  48230-3 0  9998,2 53792  53.2184  18.6357 0001630 117.0155 243.1003 15.08828967 69104,6917.914,95.438,540.907,538.651,0.0
53792.0,STARLINK-4739,PAYLOAD,2023-12-06 02:21:07,15.08852259,0.0001596,53.2188,15.6629,109.7344,250.382,-3.2381e-05,-8.04e-06,0.0,0 STARLINK-4739,1 53792U 22111V   23340.09799846 -.00000804  00000-0 -32381-4 0  9992,2 53792  53.2188  15.6629 0001596 109.7344 250.3820 15.08852259 68406,6917.843,95.437,540.812,538.604,0.0
53792.0,STARLINK-4739,PAYLOAD,2023-12-06 08:42:39,15.08850108,0.000162,53.2187,14.4728,104.659,255.4582,-5.159e-05,-1.109e-05,0.0,0 STARLINK-4739,1 53792U 22111V   23340.36295806 -.00001109  00000-0 -51590-4 0  9991,2 53792  53.2187  14.4728 0001620 104.6590 255.4582 15.08850108 69242,6917.849,95.437,540.835,538.594,0.0
53792.0,STARLINK-4739,PAYLOAD,2023-12-07 11:44:12,15.0884714,0.0001644,53.2177,9.4183,83.3905,276.7274,2.1056e-05,4.7e-07,0.0,0 STARLINK-4739,1 53792U 22111V   23341.48903196  .00000047  00000-0  21056-4 0  9995,2 53792  53.2177   9.4183 0001644  83.3905 276.7274 15.08847140 68615,6917.859,95.437,540.861,538.586,0.0
53792.0,STARLINK-4739,PAYLOAD,2023-12-08 02:02:40,15.08838256,0.000157,53.2179,6.7394,99.8784,260.2385,3.4229e-06,-2.34e-06,0.0,0 STARLINK-4739,1 53792U 22111V   23342.08519603 -.00000234  00000-0  34229-5 0  9994,2 53792  53.2179   6.7394 0001570  99.8784 260.2385 15.08838256 68705,6917.886,95.438,540.837,538.665,0.0
53792.0,STARLINK-4739,PAYLOAD,2023-12-08 08:24:13,15.08839826,0.0001584,53.2182,5.5501,105.3275,254.7892,1.5687e-05,-3.8e-07,0.0,0 STARLINK-4739,1 53792U 22111V   23342.35015422 -.00000038  00000-0  15687-4 0  9992,2 53792  53.2182   5.5501 0001584 105.3275 254.7892 15.08839826 69547,6917.881,95.438,540.842,538.65,0.0
53792.0,STARLINK-4739,PAYLOAD,2023-12-09 01:53:28,15.08829972,0.0001589,53.219,2.2775,100.9718,259.1453,-7.7634e-05,-1.523e-05,0.0,0 STARLINK-4739,1 53792U 22111V   23343.07880682 -.00001523  00000-0 -77634-4 0  9991,2 53792  53.2190   2.2775 0001589 100.9718 259.1453 15.08829972 68857,6917.911,95.438,540.875,538.677,0.0
53792.0,STARLINK-4739,PAYLOAD,2023-12-09 08:15:02,15.08822242,0.0001638,53.2183,1.0903,105.4882,254.6291,-0.00011373,-2.097e-05,0.0,0 STARLINK-4739,1 53792U 22111V   23343.34377487 -.00002097  00000-0 -11373-3 0  9999,2 53792  53.2183   1.0903 0001638 105.4882 254.6291 15.08822242 68893,6917.935,95.439,540.933,538.667,0.0
53792.0,STARLINK-4739,PAYLOAD,2023-12-10 11:16:35,15.08834746,0.0001519,53.2181,356.0344,104.7298,255.3863,3.0306e-05,1.94e-06,0.0,0 STARLINK-4739,1 53792U 22111V   23344.46984981  .00000194  00000-0  30306-4 0  9998,2 53792  53.2181 356.0344 0001519 104.7298 255.3863 15.08834746 69069,6917.896,95.438,540.812,538.711,0.0
53792.0,STARLINK-4739,PAYLOAD,2023-12-11 06:21:12,15.08836325,0.0001408,53.218,352.4737,83.63,276.4852,0.00023511,3.455e-05,0.0,0 STARLINK-4739,1 53792U 22111V   23345.26472400  .00003455  00000-0  23511-3 0  9997,2 53792  53.2180 352.4737 0001408  83.6300 276.4852 15.08836325 69180,6917.892,95.438,540.731,538.783,0.0
53792.0,STARLINK-4739,PAYLOAD,2023-12-12 07:47:22,15.08848209,0.0001465,53.2176,347.7109,85.1677,274.9483,-2.501e-05,-6.86e-06,0.0,0 STARLINK-4739,1 53792U 22111V   23346.32456532 -.00000686  00000-0 -25010-4 0  9995,2 53792  53.2176 347.7109 0001465  85.1677 274.9483 15.08848209 69347,6917.855,95.437,540.734,538.707,0.0
53792.0,STARLINK-4739,PAYLOAD,2023-12-13 07:38:08,15.0884882,0.0001595,53.2181,343.2485,80.9449,279.1724,1.8762e-05,1.1e-07,0.0,0 STARLINK-4739,1 53792U 22111V   23347.31815820  .00000011  00000-0  18762-4 0  9990,2 53792  53.2181 343.2485 0001595  80.9449 279.1724 15.08848820 70295,6917.853,95.437,540.822,538.615,0.0
53792.0,STARLINK-4739,PAYLOAD,2023-12-14 04:18:10,15.08838765,0.0001921,53.219,339.3806,68.914,291.2057,9.5368e-06,-1.36e-06,0.0,0 STARLINK-4739,1 53792U 22111V   23348.17928329 -.00000136  00000-0  95368-5 0  9991,2 53792  53.2190 339.3806 0001921  68.9140 291.2057 15.08838765 69621,6917.884,95.438,541.078,538.42,0.0
53792.0,STARLINK-4739,PAYLOAD,2023-12-14 05:53:33,15.08839592,0.000194,53.2188,339.0836,68.4938,291.6261,1.7188e-05,-1.5e-07,0.0,0 STARLINK-4739,1 53792U 22111V   23348.24552276 -.00000015  00000-0  17188-4 0  9992,2 53792  53.2188 339.0836 0001940  68.4938 291.6261 15.08839592 70430,6917.882,95.438,541.089,538.405,0.0
53792.0,STARLINK-4739,PAYLOAD,2023-12-15 04:08:56,15.088487,0.0001685,53.2184,334.9204,80.6934,279.4248,-2.7493e-05,-7.26e-06,0.0,0 STARLINK-4739,1 53792U 22111V   23349.17287610 -.00000726  00000-0 -27493-4 0  9992,2 53792  53.2184 334.9204 0001685  80.6934 279.4248 15.08848700 69772,6917.854,95.437,540.884,538.553,0.0
53792.0,STARLINK-4739,PAYLOAD,2023-12-15 05:44:19,15.08840623,0.0001678,53.2187,334.6232,82.8594,277.2589,8.7878e-05,1.111e-05,0.0,0 STARLINK-4739,1 53792U 22111V   23349.23911609  .00001111  00000-0  87878-4 0  9991,2 53792  53.2187 334.6232 0001678  82.8594 277.2589 15.08840623 70582,6917.878,95.438,540.904,538.583,0.0
53792.0,STARLINK-4739,PAYLOAD,2023-12-16 03:59:44,15.08833628,0.0001781,53.2193,330.4723,113.1336,246.9844,-6.7701e-05,-1.365e-05,0.0,0 STARLINK-4739,1 53792U 22111V   23350.16648759 -.00001365  00000-0 -67701-4 0  9994,2 53792  53.2193 330.4723 0001781 113.1336 246.9844 15.08833628 69925,6917.9,95.438,540.997,538.533,0.0
53792.0,STARLINK-4739,PAYLOAD,2023-12-16 05:35:07,15.0883447,0.0001693,53.2188,330.1724,108.0768,252.0409,-5.9028e-05,-1.227e-05,0.0,0 STARLINK-4739,1 53792U 22111V   23350.23272710 -.00001227  00000-0 -59028-4 0  9992,2 53792  53.2188 330.1724 0001693 108.0768 252.0409 15.08834470 70733,6917.897,95.438,540.933,538.591,0.0
53792.0,STARLINK-4739,PAYLOAD,2023-12-17 05:25:54,15.08841067,0.0001413,53.2173,325.7021,94.076,266.0394,7.2359e-06,-1.73e-06,0.0,0 STARLINK-4739,1 53792U 22111V   23351.22632378 -.00000173  00000-0  72359-5 0  9993,2 53792  53.2173 325.7021 0001413  94.0760 266.0394 15.08841067 70089,6917.877,95.437,540.72,538.765,0.0
